NORAD_CAT_ID,OBJECT_NAME,OBJECT_TYPE,EPOCH,MEAN_MOTION,ECCENTRICITY,INCLINATION,RA_OF_ASC_NODE,ARG_OF_PERICENTER,MEAN_ANOMALY,BSTAR,MEAN_MOTION_DOT,MEAN_MOTION_DDOT,TLE_LINE0,TLE_LINE1,TLE_LINE2,SEMIMAJOR_AXIS,PERIOD,APOGEE,PERIGEE,DECAYED
49419.0,STARLINK-3120,PAYLOAD,2022-03-02 22:00:00,15.08838742,0.0002233,53.216,338.2043,49.2372,151.5349,-0.0014029,-0.00022546,0.0,0 STARLINK-3120,1 49419U 21104M   22061.91667824 -.00022546  00000-0 -14029-2 0  9998,2 49419  53.2160 338.2043 0002233  49.2372 151.5349 15.08838742 18122,6917.884,95.438,541.294,538.2040000000002,0.0
49419.0,STARLINK-3120,PAYLOAD,2022-03-03 14:00:01,15.08814539,0.0002224,53.2154,335.2108,49.8672,174.0759,0.0024961,0.00039634,0.0,0 STARLINK-3120,1 49419U 21104M   22062.58334491  .00039634  00000-0  24961-2 0  9993,2 49419  53.2154 335.2108 0002224  49.8672 174.0759 15.08814539 18227,6917.958000000001,95.439,541.362,538.285,0.0
49419.0,STARLINK-3120,PAYLOAD,2022-03-03 18:00:00,15.08832837,0.0002266,53.2156,334.4625,52.3252,357.4035,0.0016188,0.00025564,0.0,0 STARLINK-3120,1 49419U 21104M   22062.75001157  .00025564  00000-0  16188-2 0  9991,2 49419  53.2156 334.4625 0002266  52.3252 357.4035 15.08832837  3570,6917.901999999999,95.438,541.335,538.2,0.0
49419.0,STARLINK-3120,PAYLOAD,2022-03-04 06:00:02,15.08840978,0.0002402,53.2152,332.2197,45.9411,201.2484,-0.00088561,-0.00014356,0.0,0 STARLINK-3120,1 49419U 21104M   22063.25002315 -.00014356  00000-0 -88561-3 0  9998,2 49419  53.2152 332.2197 0002402  45.9411 201.2484 15.08840978 18321,6917.877,95.437,541.404,538.081,0.0
49419.0,STARLINK-3120,PAYLOAD,2022-03-04 14:00:01,15.08804602,0.0002237,53.2153,330.7215,49.7908,209.0,0.0029112,0.00046304,0.0,0 STARLINK-3120,1 49419U 21104M   22063.58335648  .00046304  00000-0  29112-2 0  9994,2 49419  53.2153 330.7215 0002237  49.7908 209.0000 15.08804602  3592,6917.989000000001,95.44,541.401,538.306,0.0
49419.0,STARLINK-3120,PAYLOAD,2022-03-04 22:00:00,15.088497699999998,0.0002378,53.2154,329.2262,49.9113,220.393,-0.0011181,-0.00018044,0.0,0 STARLINK-3120,1 49419U 21104M   22063.91667824 -.00018044  00000-0 -11181-2 0  9994,2 49419  53.2154 329.2262 0002378  49.9113 220.3930 15.08849770  3597,6917.851,95.437,541.361,538.07,0.0
49419.0,STARLINK-3120,PAYLOAD,2022-03-05 06:00:00,15.08846743,0.0002444,53.2151,327.7304,46.486,235.4195,0.00089058,0.00013917,0.0,0 STARLINK-3120,1 49419U 21104M   22064.25001157  .00013917  00000-0  89058-3 0  9994,2 49419  53.2151 327.7304 0002444  46.4860 235.4195 15.08846743 18479,6917.86,95.437,541.4159999999998,538.034,0.0
49419.0,STARLINK-3120,PAYLOAD,2022-03-05 14:00:01,15.08825443,0.0002262,53.2154,326.2321,50.6165,242.9099,0.0014800999999999,0.00023337,0.0,0 STARLINK-3120,1 49419U 21104M   22064.58334491  .00023337  00000-0  14801-2 0  9990,2 49419  53.2154 326.2321 0002262  50.6165 242.9099 15.08825443  3573,6917.925,95.438,541.355,538.225,0.0
49419.0,STARLINK-3120,PAYLOAD,2022-03-05 22:00:01,15.08856962,0.0002347,53.2155,324.7367,49.0118,256.1676,-0.0015225,-0.00024449,0.0,0 STARLINK-3120,1 49419U 21104M   22064.91668981 -.00024449  00000-0 -15225-2 0  9999,2 49419  53.2155 324.7367 0002347  49.0118 256.1676 15.08856962 18575,6917.829000000002,95.436,541.317,538.07,0.0
49419.0,STARLINK-3120,PAYLOAD,2022-03-06 14:00:01,15.08828646,0.000216,53.2155,321.7425,49.6382,278.7033,0.0023026999999999,0.00036539,0.0,0 STARLINK-3120,1 49419U 21104M   22065.58334491  .00036539  00000-0  23027-2 0  9999,2 49419  53.2155 321.7425 0002160  49.6382 278.7033 15.08828646 18675,6917.915,95.438,541.274,538.286,0.0
49419.0,STARLINK-3120,PAYLOAD,2022-03-06 22:00:00,15.08846809,0.0002244,53.2156,320.2473,47.1616,292.7813,-0.0011915,-0.00019205,0.0,0 STARLINK-3120,1 49419U 21104M   22065.91667824 -.00019205  00000-0 -11915-2 0  9991,2 49419  53.2156 320.2473 0002244  47.1616 292.7813 15.08846809  3597,6917.86,95.437,541.2769999999998,538.172,0.0
49419.0,STARLINK-3120,PAYLOAD,2022-03-07 06:00:00,15.08854921,0.0002231,53.2153,318.7511,42.8578,308.6679,-0.0026553,-0.00042318,0.0,0 STARLINK-3120,1 49419U 21104M   22066.25001157 -.00042318  00000-0 -26553-2 0  9995,2 49419  53.2153 318.7511 0002231  42.8578 308.6679 15.08854921 18771,6917.835,95.437,541.243,538.156,0.0
49419.0,STARLINK-3120,PAYLOAD,2022-03-07 12:00:00,15.08817474,0.0002009,53.2156,317.6274,46.2041,224.0284,-4.785100000000001e-05,-1.049e-05,0.0,0 STARLINK-3120,1 49419U 21104M   22066.50001157 -.00001049  00000-0 -47851-4 0  9995,2 49419  53.2156 317.6274 0002009  46.2041 224.0284 15.08817474  3638,6917.949000000001,95.439,541.2040000000002,538.424,0.0
49419.0,STARLINK-3120,PAYLOAD,2022-03-07 22:00:00,15.08808355,0.0002104,53.2156,315.7581,44.0893,330.5799,-0.0010324,-0.00016667,0.0,0 STARLINK-3120,1 49419U 21104M   22066.91667824 -.00016667  00000-0 -10324-2 0  9994,2 49419  53.2156 315.7581 0002104  44.0893 330.5799 15.08808355  3581,6917.977,95.44,541.298,538.387,0.0
49419.0,STARLINK-3120,PAYLOAD,2022-03-08 06:00:02,15.08813279,0.000213,53.2152,314.2617,42.0651,344.213,-0.00026382,-4.482e-05,0.0,0 STARLINK-3120,1 49419U 21104M   22067.25002315 -.00004482  00000-0 -26382-3 0  9994,2 49419  53.2152 314.2617 0002130  42.0651 344.2130 15.08813279 18937,6917.962,95.439,541.3009999999998,538.354,0.0
49419.0,STARLINK-3120,PAYLOAD,2022-03-08 14:00:01,15.08789,0.0001962,53.2153,312.7638,48.1658,349.6136,0.003432,0.0005468,0.0,0 STARLINK-3120,1 49419U 21104M   22067.58334491  .00054680  00000-0  34320-2 0  9996,2 49419  53.2153 312.7638 0001962  48.1658 349.6136 15.08789000  3573,6918.036,95.441,541.259,538.544,0.0
49419.0,STARLINK-3120,PAYLOAD,2022-03-08 22:00:00,15.08829511,0.0002129,53.2152,311.269,46.0529,3.2839,-0.0010296,-0.00016633,0.0,0 STARLINK-3120,1 49419U 21104M   22067.91667824 -.00016633  00000-0 -10296-2 0  9996,2 49419  53.2152 311.2690 0002129  46.0529   3.2839 15.08829511  3603,6917.9119999999975,95.438,541.25,538.305,0.0
49419.0,STARLINK-3120,PAYLOAD,2022-03-09 06:00:00,15.08836966,0.0002143,53.2148,309.7725,44.4933,16.4148,-0.00063602,-0.00010396,0.0,0 STARLINK-3120,1 49419U 21104M   22068.25001157 -.00010396  00000-0 -63602-3 0  9995,2 49419  53.2148 309.7725 0002143  44.4933  16.4148 15.08836966 19086,6917.89,95.438,541.237,538.2719999999998,0.0
49419.0,STARLINK-3120,PAYLOAD,2022-03-09 14:00:01,15.08811342,0.0001994,53.2148,308.2746,50.8494,21.6438,0.0030112,0.00047924,0.0,0 STARLINK-3120,1 49419U 21104M   22068.58334491  .00047924  00000-0  30112-2 0  9995,2 49419  53.2148 308.2746 0001994  50.8494  21.6438 15.08811342  3612,6917.968000000003,95.439,541.212,538.4540000000002,0.0
49419.0,STARLINK-3120,PAYLOAD,2022-03-09 22:00:01,15.08843738,0.0002174,53.2148,306.7798,48.3194,35.8164,-0.00095889,-0.00015519,0.0,0 STARLINK-3120,1 49419U 21104M   22068.91668981 -.00015519  00000-0 -95889-3 0  9996,2 49419  53.2148 306.7798 0002174  48.3194  35.8164 15.08843738  3596,6917.869000000002,95.437,541.238,538.23,0.0
49419.0,STARLINK-3120,PAYLOAD,2022-03-10 06:00:00,15.08853109,0.0002181,53.2144,305.2831,46.88399999999999,48.776,-0.0010559,-0.0001706,0.0,0 STARLINK-3120,1 49419U 21104M   22069.25001157 -.00017060  00000-0 -10559-2 0  9993,2 49419  53.2144 305.2831 0002181  46.8840  48.7760 15.08853109 19239,6917.84,95.437,541.214,538.197,0.0
49419.0,STARLINK-3120,PAYLOAD,2022-03-10 14:00:01,15.08831107,0.0002073,53.2145,303.7853,53.0412,54.2252,0.002557,0.00040632,0.0,0 STARLINK-3120,1 49419U 21104M   22069.58334491  .00040632  00000-0  25570-2 0  9997,2 49419  53.2145 303.7853 0002073  53.0412  54.2252 15.08831107  3574,6917.908,95.438,541.207,538.3380000000002,0.0
49419.0,STARLINK-3120,PAYLOAD,2022-03-10 20:00:01,15.08866102,0.000218,53.2146,302.6643,50.6614,335.3016,-0.0015537,-0.00024949,0.0,0 STARLINK-3120,1 49419U 21104M   22069.83334491 -.00024949  00000-0 -15537-2 0  9992,2 49419  53.2146 302.6643 0002180  50.6614 335.3016 15.08866102 19320,6917.801,95.436,541.174,538.158,0.0
49419.0,STARLINK-3120,PAYLOAD,2022-03-10 22:00:01,15.08857215,0.0002236,53.2145,302.2905,49.596,69.3367,-0.00067905,-0.00011085,0.0,0 STARLINK-3120,1 49419U 21104M   22069.91668981 -.00011085  00000-0 -67905-3 0  9999,2 49419  53.2145 302.2905 0002236  49.5960  69.3367 15.08857215  3601,6917.828,95.436,541.24,538.146,0.0
49419.0,STARLINK-3120,PAYLOAD,2022-03-11 12:00:00,15.08817309,0.0002013,53.2143,299.67,50.8862,358.3256,0.0033786,0.00053861,0.0,0 STARLINK-3120,1 49419U 21104M   22070.50001157  .00053861  00000-0  33786-2 0  9997,2 49419  53.2143 299.6700 0002013  50.8862 358.3256 15.08817309 19425,6917.95,95.439,541.207,538.422,0.0
49419.0,STARLINK-3120,PAYLOAD,2022-03-11 14:00:01,15.0883156,0.0002051,53.2144,299.2958,52.4928,89.6116,0.0024185,0.00038404,0.0,0 STARLINK-3120,1 49419U 21104M   22070.58334491  .00038404  00000-0  24185-2 0  9994,2 49419  53.2144 299.2958 0002051  52.4928  89.6116 15.08831560  3573,6917.906,95.438,541.19,538.352,0.0
49419.0,STARLINK-3120,PAYLOAD,2022-03-11 22:00:00,15.0885744,0.0002223,53.2145,297.8012,48.2122,105.4993,-0.00036833,-6.149e-05,0.0,0 STARLINK-3120,1 49419U 21104M   22070.91667824 -.00006149  00000-0 -36833-3 0  9997,2 49419  53.2145 297.8012 0002223  48.2122 105.4993 15.08857440  3596,6917.8269999999975,95.436,541.23,538.154,0.0
49419.0,STARLINK-3120,PAYLOAD,2022-03-12 06:00:00,15.08863759,0.0002037,53.216,296.3046,47.0971,118.2,-0.0064297,-0.00101251,0.0,0 STARLINK-3120,1 49419U 21104M   22071.25001157 -.00101251  00000-0 -64297-2 0  9990,2 49419  53.2160 296.3046 0002037  47.0971 118.2000 15.08863759 19538,6917.808000000001,95.436,541.082,538.264,0.0
49419.0,STARLINK-3120,PAYLOAD,2022-03-12 14:00:01,15.0883916,0.000201,53.2147,294.8066,50.3738,126.5132,0.00097407,0.00015248,0.0,0 STARLINK-3120,1 49419U 21104M   22071.58334491  .00015248  00000-0  97407-3 0  9994,2 49419  53.2147 294.8066 0002010  50.3738 126.5132 15.08839160 19589,6917.8830000000025,95.438,541.138,538.357,0.0
